CCSDS_OMM_VERS = 2.0
CREATION_DATE  = 
ORIGINATOR     = 

OBJECT_NAME    = CZ-2F R/B
OBJECT_ID      = 2025-246B
CENTER_NAME    = EARTH
REF_FRAME      = TEME
TIME_SYSTEM    = UTC
MEAN_ELEMENT_THEORY = SGP/SGP4

EPOCH          = 2025-11-10T03:05:03.050592
MEAN_MOTION    = 16.25672075
ECCENTRICITY   = .0054522
INCLINATION    = 41.4542
RA_OF_ASC_NODE = 210.2937
ARG_OF_PERICENTER = 202.9764
MEAN_ANOMALY   = 156.8657

EPHEMERIS_TYPE = 0
CLASSIFICATION_TYPE = U
NORAD_CAT_ID   = 66264
ELEMENT_SET_NO = 999
REV_AT_EPOCH   = 153
BSTAR          = .53756E-3
MEAN_MOTION_DOT = .2644362E-1
MEAN_MOTION_DDOT = .77478E-5

CCSDS_OMM_VERS = 2.0
CREATION_DATE  = 
ORIGINATOR     = 

OBJECT_NAME    = LVM3 R/B
OBJECT_ID      = 2025-249A
CENTER_NAME    = EARTH
REF_FRAME      = TEME
TIME_SYSTEM    = UTC
MEAN_ELEMENT_THEORY = SGP/SGP4

EPOCH          = 2025-11-08T10:09:50.547744
MEAN_MOTION    = 3.12265568
ECCENTRICITY   = .6683178
INCLINATION    = 21.3307
RA_OF_ASC_NODE = 157.2920
ARG_OF_PERICENTER = 184.1909
MEAN_ANOMALY   = 164.4309

EPHEMERIS_TYPE = 0
CLASSIFICATION_TYPE = U
NORAD_CAT_ID   = 66310
ELEMENT_SET_NO = 999
REV_AT_EPOCH   = 20
BSTAR          = .12878E-2
MEAN_MOTION_DOT = .47687E-3
MEAN_MOTION_DDOT = -.55995E-6

CCSDS_OMM_VERS = 2.0
CREATION_DATE  = 
ORIGINATOR     = 

OBJECT_NAME    = CMS-03 (GSAT-7R)
OBJECT_ID      = 2025-249B
CENTER_NAME    = EARTH
REF_FRAME      = TEME
TIME_SYSTEM    = UTC
MEAN_ELEMENT_THEORY = SGP/SGP4

EPOCH          = 2025-11-02T23:49:54.111360
MEAN_MOTION    = 3.12953676
ECCENTRICITY   = .66878056
INCLINATION    = 21.3965
RA_OF_ASC_NODE = 160.6225
ARG_OF_PERICENTER = 178.2200
MEAN_ANOMALY   = 186.7171

EPHEMERIS_TYPE = 0
CLASSIFICATION_TYPE = U
NORAD_CAT_ID   = 66311
ELEMENT_SET_NO = 999
REV_AT_EPOCH   = 3
BSTAR          = .35582965E-3
MEAN_MOTION_DOT = .26741E-3
MEAN_MOTION_DDOT = .142389E-6

CCSDS_OMM_VERS = 2.0
CREATION_DATE  = 
ORIGINATOR     = 

OBJECT_NAME    = YAOGAN-46
OBJECT_ID      = 2025-250A
CENTER_NAME    = EARTH
REF_FRAME      = TEME
TIME_SYSTEM    = UTC
MEAN_ELEMENT_THEORY = SGP/SGP4

EPOCH          = 2025-11-07T22:39:52.994304
MEAN_MOTION    = 5.35116113
ECCENTRICITY   = .00492211
INCLINATION    = 20.0284
RA_OF_ASC_NODE = 114.3357
ARG_OF_PERICENTER = 118.0370
MEAN_ANOMALY   = 242.4814

EPHEMERIS_TYPE = 0
CLASSIFICATION_TYPE = U
NORAD_CAT_ID   = 66313
ELEMENT_SET_NO = 999
REV_AT_EPOCH   = 33
BSTAR          = 0
MEAN_MOTION_DOT = -.7E-7
MEAN_MOTION_DDOT = 0

CCSDS_OMM_VERS = 2.0
CREATION_DATE  = 
ORIGINATOR     = 

OBJECT_NAME    = CZ-7A R/B
OBJECT_ID      = 2025-250B
CENTER_NAME    = EARTH
REF_FRAME      = TEME
TIME_SYSTEM    = UTC
MEAN_ELEMENT_THEORY = SGP/SGP4

EPOCH          = 2025-11-04T18:44:00.682080
MEAN_MOTION    = 8.58954420
ECCENTRICITY   = .3555489
INCLINATION    = 19.9260
RA_OF_ASC_NODE = 116.0532
ARG_OF_PERICENTER = 130.5060
MEAN_ANOMALY   = 266.3968

EPHEMERIS_TYPE = 0
CLASSIFICATION_TYPE = U
NORAD_CAT_ID   = 66314
ELEMENT_SET_NO = 999
REV_AT_EPOCH   = 19
BSTAR          = .51460467E-3
MEAN_MOTION_DOT = .4554797E-1
MEAN_MOTION_DDOT = -.13031307E-4

CCSDS_OMM_VERS = 2.0
CREATION_DATE  = 
ORIGINATOR     = 

OBJECT_NAME    = SENTINEL-1D
OBJECT_ID      = 2025-251A
CENTER_NAME    = EARTH
REF_FRAME      = TEME
TIME_SYSTEM    = UTC
MEAN_ELEMENT_THEORY = SGP/SGP4

EPOCH          = 2025-11-08T18:57:40.421952
MEAN_MOTION    = 14.59422438
ECCENTRICITY   = .0001376
INCLINATION    = 98.1948
RA_OF_ASC_NODE = 318.2490
ARG_OF_PERICENTER = 359.9633
MEAN_ANOMALY   = 0.1567

EPHEMERIS_TYPE = 0
CLASSIFICATION_TYPE = U
NORAD_CAT_ID   = 66315
ELEMENT_SET_NO = 999
REV_AT_EPOCH   = 58
BSTAR          = .86596E-4
MEAN_MOTION_DOT = .364E-5
MEAN_MOTION_DDOT = 0

CCSDS_OMM_VERS = 2.0
CREATION_DATE  = 
ORIGINATOR     = 

OBJECT_NAME    = QPS-SAR-14 (YACHIHOKO-I)
OBJECT_ID      = 2025-252A
CENTER_NAME    = EARTH
REF_FRAME      = TEME
TIME_SYSTEM    = UTC
MEAN_ELEMENT_THEORY = SGP/SGP4

EPOCH          = 2025-11-08T20:27:36.617760
MEAN_MOTION    = 14.97160561
ECCENTRICITY   = .0009893
INCLINATION    = 42.0051
RA_OF_ASC_NODE = 261.0594
ARG_OF_PERICENTER = 286.8857
MEAN_ANOMALY   = 73.0882

EPHEMERIS_TYPE = 0
CLASSIFICATION_TYPE = U
NORAD_CAT_ID   = 66316
ELEMENT_SET_NO = 999
REV_AT_EPOCH   = 45
BSTAR          = .89767E-3
MEAN_MOTION_DOT = .10386E-3
MEAN_MOTION_DDOT = 0

CCSDS_OMM_VERS = 2.0
CREATION_DATE  = 
ORIGINATOR     = 

OBJECT_NAME    = ELECTRON R/B
OBJECT_ID      = 2025-252B
CENTER_NAME    = EARTH
REF_FRAME      = TEME
TIME_SYSTEM    = UTC
MEAN_ELEMENT_THEORY = SGP/SGP4

EPOCH          = 2025-11-08T20:46:56.084160
MEAN_MOTION    = 15.58383134
ECCENTRICITY   = .0238822
INCLINATION    = 42.0025
RA_OF_ASC_NODE = 259.4176
ARG_OF_PERICENTER = 257.1365
MEAN_ANOMALY   = 100.2706

EPHEMERIS_TYPE = 0
CLASSIFICATION_TYPE = U
NORAD_CAT_ID   = 66317
ELEMENT_SET_NO = 999
REV_AT_EPOCH   = 47
BSTAR          = .18471E-2
MEAN_MOTION_DOT = .614914E-2
MEAN_MOTION_DDOT = .11116E-3

CCSDS_OMM_VERS = 2.0
CREATION_DATE  = 
ORIGINATOR     = 

OBJECT_NAME    = ELECTRON KICK STAGE R/B
OBJECT_ID      = 2025-252C
CENTER_NAME    = EARTH
REF_FRAME      = TEME
TIME_SYSTEM    = UTC
MEAN_ELEMENT_THEORY = SGP/SGP4

EPOCH          = 2025-11-05T21:56:53.518848
MEAN_MOTION    = 15.58079017
ECCENTRICITY   = .0208812
INCLINATION    = 41.9820
RA_OF_ASC_NODE = 277.1096
ARG_OF_PERICENTER = 235.1722
MEAN_ANOMALY   = 122.9324

EPHEMERIS_TYPE = 0
CLASSIFICATION_TYPE = U
NORAD_CAT_ID   = 66318
ELEMENT_SET_NO = 999
REV_AT_EPOCH   = 1
BSTAR          = .26876E-3
MEAN_MOTION_DOT = .5927E-3
MEAN_MOTION_DDOT = .78551E-5

